COSMOS 1892             
1 18421U 87088A   20211.35176797  .00000458  00000-0  21404-4 0  9990
2 18421  82.4984 232.0731 0013400 281.8398  78.1332 15.17180932791129
SL-14 R/B               
1 18749U 88001B   20211.23935140  .00000053  00000-0  34813-5 0  9991
2 18749  82.5161 318.4811 0019369 156.3289 226.0678 14.83222934738065
COSMOS 1933             
1 18958U 88020A   20211.24990805  .00000253  00000-0  16349-4 0  9999
2 18958  82.5285  85.2392 0012102  17.8613 342.3036 15.03740505741366
SL-3 R/B                
1 19046U 88032B   20211.21168470  .00000801  00000-0  63420-4 0  9994
2 19046  97.3997 230.4243 0037820  64.2805 296.2317 15.02722046743237
SL-16 R/B               
1 19120U 88039B   20211.05288141 -.00000077  00000-0 -13808-4 0  9996
2 19120  71.0137  80.6238 0023984 245.7559 114.1060 14.19208311667556
COSMOS 1953             
1 19210U 88050A   20211.17344732  .00000359  00000-0  22627-4 0  9991
2 19210  82.5159   9.3274 0012878 344.8361  15.2478 15.05991614727942
SL-8 R/B                
1 19257U 88053B   20211.26428177  .00000023  00000-0  16616-4 0  9990
2 19257  74.0491 284.1070 0021539 254.2142 160.5520 14.37473825682013
COSMOS 1975             
1 19573U 88093A   20211.04589421  .00000273  00000-0  17186-4 0  9991
2 19573  82.5211 323.8899 0015000  27.8268 332.3758 15.04900416709767
SL-14 R/B               
1 19574U 88093B   20211.25918517  .00000055  00000-0  37470-5 0  9994
2 19574  82.5335 160.9582 0020756 327.9399 146.3542 14.83333334697065
SL-16 R/B               
1 19650U 88102B   20211.24048374 -.00000290  00000-0 -12319-3 0  9990
2 19650  71.0006 142.0399 0016553 253.6161 106.3142 14.15791256636798
INTERCOSMOS 24          
1 20261U 89080A   20211.15451983  .00000073  00000-0  17883-4 0  9999
2 20261  82.6066 353.2932 1202701 351.6962   6.5690 12.56123443408822
SL-14 R/B               
1 20262U 89080C   20211.07402206  .00000056  00000-0  11213-4 0  9997
2 20262  82.5918  47.2602 1236949 182.1940 177.3405 12.48942871404187
DELTA 2 R/B(1)          
1 20303U 89085B   20211.10049021  .00001323  00000-0  44141-4 0  9998
2 20303  35.6284 108.8130 0094890 187.1786 172.7584 15.27464819674971
DELTA 1 R/B             
1 20323U 89089B   20211.22412075  .00000000  00000-0  89235-5 0  9995
2 20323  97.0956 350.3746 0073311  99.4728 261.4765 14.48353243598910
ARIANE 40 R/B           
1 20443U 90005H   20211.18947564 -.00000003  00000-0  13574-4 0  9995
2 20443  98.5731 272.9399 0009811 213.1533 146.9040 14.38093990598110
DELTA 2 R/B(1)          
1 20453U 90008B   20211.22269291  .00000290  00000-0  18824-4 0  9998
2 20453  35.6272   9.9998 0281449 293.5402  63.5981 14.85622126617416
COSMOS 2058             
1 20465U 90010A   20211.19678582  .00000205  00000-0  14954-4 0  9993
2 20465  82.4874 233.1743 0016869  63.4272 296.8677 14.98024583634573
SL-14 R/B               
1 20466U 90010B   20211.22009920  .00000062  00000-0  49056-5 0  9995
2 20466  82.5023  27.6843 0020042 196.2382 163.8192 14.81388799624919
SL-14 R/B               
1 20511U 90018B   20211.12833875  .00000049  00000-0  34343-5 0  9995
2 20511  82.5250 334.3350 0017025 346.3262 186.5741 14.80044529640374
HST                     
1 20580U 90037B   20211.33371528  .00000372  00000-0  11641-4 0  9991
2 20580  28.4705  42.6610 0002684 179.2886 199.8004 15.09410448462383
SL-16 R/B               
1 20625U 90046B   20211.22401700  .00000195  00000-0  12604-3 0  9997
2 20625  70.9992 280.5244 0014386 187.1709 172.9209 14.14659042558524
COSMOS 2084             
1 20663U 90055A   20211.20550418 -.00000071  00000-0  11040-4 0  9996
2 20663  62.7955  28.7831 0028856 281.1540  78.6310 14.92098950629584
SL-6 R/B(2)             
1 20666U 90055D   20211.25100889 -.00000113  00000-0  73613-5 0  9999
2 20666  62.7868 304.9608 0050647 350.3421   9.6693 14.92348973631530
SL-8 R/B                
1 20775U 90078B   20211.23881563  .00001891  00000-0  88807-4 0  9991
2 20775  82.9267 192.1757 0574828  65.3259 300.6657 14.34453163511731
SL-8 R/B                
1 21088U 91006B   20211.23523700 -.00000024  00000-0 -40112-4 0  9993
2 21088  82.9406 254.1496 0022862  17.8597  48.8868 13.77148804481961
OKEAN-3                 
1 21397U 91039A   20211.20355074  .00000136  00000-0  10511-4 0  9998
2 21397  82.5234 137.0181 0018816  34.1955 326.0473 14.92941783558494
COSMOS 2151             
1 21422U 91042A   20211.16954113  .00000081  00000-0  53562-5 0  9998
2 21422  82.4987 243.2248 0015818  93.6607 266.6422 14.92142756578188
SL-14 R/B               
1 21423U 91042B   20211.38628861  .00000052  00000-0  37553-5 0  9991
2 21423  82.4958 337.7100 0018955 119.5911 240.7194 14.79795078570901
ERS-1                   
1 21574U 91050A   20211.17292131  .00000014  00000-0  19282-4 0  9997
2 21574  98.5999 164.5519 0033252 161.0753 199.1677 14.37750407521117
ARIANE 40 R/B           
1 21610U 91050F   20211.21097810 -.00000015  00000-0  88632-5 0  9998
2 21610  98.4630 280.0261 0004271 124.4717 299.1046 14.40909365523711
INTERCOSMOS 25          
1 21819U 91086A   20211.33940428 -.00000202  00000-0 -45401-4 0  9998
2 21819  82.5912 101.2574 1516746 182.7295 176.4730 12.05146858249355
SL-8 R/B                
1 21876U 92008B   20211.14849769 -.00000001  00000-0 -17401-4 0  9997
2 21876  82.9280 351.4276 0036119  97.3734  75.3597 13.75657051427601
SL-8 R/B                
1 21938U 92020B   20211.14962552 -.00000062  00000-0 -80103-4 0  9992
2 21938  82.9280 235.6033 0027847 256.5292 163.2714 13.75283286419402
COSMOS 2219             
1 22219U 92076A   20211.10719955  .00000251  00000-0  15764-3 0  9997
2 22219  71.0622 340.6951 0016425  90.8793 269.4211 14.13649209428703
SL-16 R/B               
1 22220U 92076B   20211.22736175 -.00000092  00000-0 -22340-4 0  9999
2 22220  70.9996 183.6465 0013992 329.8212  41.0649 14.16459817431596
COSMOS 2221             
1 22236U 92080A   20211.05135700  .00000125  00000-0  10853-4 0  9990
2 22236  82.5065  64.3492 0016596 178.4753 181.6518 14.87935370475466
SL-16 R/B               
1 22285U 92093B   20210.79595513 -.00000243  00000-0 -10070-3 0  9993
2 22285  71.0224 345.7828 0005238 217.6304 142.4453 14.15042902423465
COSMOS 2228             
1 22286U 92094A   20211.19915368  .00000126  00000-0  10955-4 0  9995
2 22286  82.5198  20.4905 0019821 305.0522  54.8836 14.88153012470652
SL-16 R/B               
1 22566U 93016B   20211.39027130 -.00000303  00000-0 -13208-3 0  9996
2 22566  71.0060 197.7209 0011456 213.3714 146.6688 14.14963493412279
COSMOS 2242             
1 22626U 93024A   20211.04645856  .00000128  00000-0  11275-4 0  9991
2 22626  82.5203  48.7794 0017686 306.0159  53.9418 14.88009252475040
SL-16 R/B               
1 22803U 93059B   20211.19838780  .00000234  00000-0  14071-3 0  9996
2 22803  70.9909  11.2914 0015108  92.8247 267.4605 14.16824273389217
ARIANE 40 R/B           
1 22830U 93061H   20211.10270925 -.00000020  00000-0  94460-5 0  9997
2 22830  98.7619 260.6776 0010674 194.2681 165.8201 14.31453215400781
COSMOS 2278             
1 23087U 94023A   20211.20435540  .00000271  00000-0  16790-3 0  9993
2 23087  71.0538 140.3888 0010626 275.6394  84.3516 14.13804971355096
SL-16 R/B               
1 23088U 94023B   20211.26091048 -.00000127  00000-0 -41139-4 0  9999
2 23088  70.9980  53.3719 0003808 205.8497 154.2436 14.14685373356223
SL-16 R/B               
1 23343U 94074B   20211.18031097 -.00000004  00000-0  67673-5 0  9993
2 23343  97.9960 263.8052 0007392  27.2733  38.5105 14.76830559384788
SL-16 R/B               
1 23405U 94077B   20211.11709862  .00000262  00000-0  15928-3 0  9999
2 23405  70.9847 342.8592 0002220 345.6485  14.4574 14.15221641326255
ERS-2                   
1 23560U 95021A   20211.01030790  .00000466  00000-0  23468-4 0  9992
2 23560  98.5460  10.2064 0004229  46.9892 313.1695 15.23226400348444
ARIANE 40+ R/B          
1 23561U 95021B   20211.40183214  .00000001  00000-0  15345-4 0  9996
2 23561  98.7212 251.2313 0007948 124.9902 246.1610 14.37976627324821
SL-16 R/B               
1 23705U 95058B   20211.29199860 -.00000300  00000-0 -13004-3 0  9990
2 23705  71.0211 161.1712 0012614 352.5086   7.5846 14.15136333278190
SL-16 R/B               
1 24298U 96051B   20211.22629719 -.00000109  00000-0 -32815-4 0  9995
2 24298  70.8414 182.4698 0018200 283.9841  75.9256 14.12500376232252
ORBVIEW 2 (SEASTAR)     
1 24883U 97037A   20211.27871900  .00000003  00000-0  17030-4 0  9999
2 24883  98.6147 324.3625 0002159  12.4674 347.6563 14.33563074214702
SL-16 R/B               
1 25400U 98043G   20211.05755305 -.00000025  00000-0  77722-5 0  9999
2 25400  98.6079 146.2216 0009274 208.2999 151.7678 14.25458281146944
SL-16 R/B               
1 25407U 98045B   20211.23655923 -.00000220  00000-0 -87693-4 0  9998
2 25407  71.0111 169.7992 0010120 271.8154  88.1810 14.15802490136994
ISS (ZARYA)             
1 25544U 98067A   20211.28274416  .00000145  00000-0  10611-4 0  9993
2 25544  51.6430 140.1084 0001102 151.5793 302.8084 15.49511653238541
SL-8 R/B                
1 25723U 99022C   20211.20999614  .00014846  00000-0  99754-4 0  9998
2 25723  48.4086 134.6566 0005083 193.7692 166.3124 15.75327646184243
CZ-4B R/B               
1 25732U 99025C   20211.11457081 -.00000027  00000-0  89059-5 0  9993
2 25732  98.9419 240.1331 0038416  91.9020 335.0765 14.17679292 97720
OKEAN-O                 
1 25860U 99039A   20211.04854050  .00000011  00000-0  91705-5 0  9992
2 25860  98.2124 230.7683 0001909  92.8635 267.2793 14.76670122131748
SL-16 R/B               
1 25861U 99039B   20211.28008913  .00000004  00000-0  80705-5 0  9998
2 25861  98.2079 214.2610 0016265  28.0550 342.5116 14.78584642133801
DELTA 2 R/B             
1 25876U 99041E   20211.21006820 -.00000129  00000-0  20158-4 0  9999
2 25876  51.7629 145.4986 0531699 105.8858 260.1316 14.04436552 74492
